ONEWEB-0597             
1 54663U 22166X   24204.92334552  .00000078  00000+0  15780-3 0  9994
2 54663  87.9288  22.1825 0002159  90.6143 269.5238 13.21827067 79826
ONEWEB-0600             
1 54664U 22166Y   24205.05739167  .00000080  00000+0  16126-3 0  9999
2 54664  87.9280  22.1943 0001983  89.0662 271.0699 13.21826372 80281
ONEWEB-0601             
1 54665U 22166Z   24204.89811461  .00000087  00000+0  17891-3 0  9996
2 54665  87.9287  22.1925 0002271  97.8369 262.3023 13.21825803 79988
ONEWEB-0602             
1 54666U 22166AA  24205.01480915  .00000018  00000+0  11958-4 0  9991
2 54666  87.9288  22.1731 0002174  92.1715 267.9667 13.21824883 80311
ONEWEB-0603             
1 54667U 22166AB  24204.94384329 -.00000002  00000+0 -36391-4 0  9998
2 54667  87.9289  22.1892 0002234  93.4340 266.7049 13.21825177 79761
ONEWEB-0604             
1 54668U 22166AC  24204.47705308 -.00000018  00000+0 -75762-4 0  9993
2 54668  87.9281  22.2594 0001931  81.2319 278.9034 13.21826517 79665
ONEWEB-0605             
1 54669U 22166AD  24204.92492100  .00000095  00000+0  19913-3 0  9995
2 54669  87.9281  22.2028 0002369 101.0208 259.1193 13.21826024 79796
ONEWEB-0606             
1 54670U 22166AE  24205.02269260  .00000030  00000+0  40046-4 0  9999
2 54670  87.9287  22.1754 0001651  88.7371 271.3952 13.21825298 80326
